ONEWEB-0208             
1 48243U 21031AK  26032.06135427  .00000068  00000+0  15004-3 0  9995
2 48243  87.9030 316.8410 0001647  87.5726 272.5593 13.14502429230421
ONEWEB-0200             
1 48244U 21031AL  26032.02487786  .00000017  00000+0  10440-4 0  9994
2 48244  87.9034 316.8377 0001737  81.4824 278.6502 13.14501850230345
ONEWEB-0217             
1 48245U 21031AM  26032.04073897 -.00000165  00000+0 -48050-3 0  9994
2 48245  87.9038 316.8327 0001644  89.8935 270.2383 13.14501495230291
ONEWEB-0211             
1 48767U 21045A   26031.96124384 -.00000106  00000+0 -31277-3 0  9994
2 48767  87.9001 286.3066 0001233  92.9759 267.1513 13.16140939226529
ONEWEB-0223             
1 48768U 21045B   26031.67036524 -.00000053  00000+0 -17369-3 0  9998
2 48768  87.8997 286.4384 0001097  83.2839 276.8417 13.15548415226459
ONEWEB-0230             
1 48769U 21045C   26032.09818169  .00000010  00000+0 -65627-5 0  9993
2 48769  87.8990 286.3791 0001628  73.8591 286.2719 13.15547981226776
ONEWEB-0237             
1 48770U 21045D   26032.08708730  .00000182  00000+0  45068-3 0  9990
2 48770  87.8991 286.3826 0001256  73.9632 286.1637 13.15548329226496
ONEWEB-0235             
1 48771U 21045E   26032.13779583  .00000186  00000+0  45892-3 0  9990
2 48771  87.8997 286.3459 0001079  79.2772 280.8480 13.15547832226497
ONEWEB-0242             
1 48772U 21045F   26031.67511417  .00000028  00000+0  39729-4 0  9997
2 48772  87.8999 286.4329 0001406  72.4940 287.6344 13.15547880226478
ONEWEB-0241             
1 48773U 21045G   26032.11877750  .00000005  00000+0 -21304-4 0  9999
2 48773  87.8990 286.3777 0001254  89.9121 270.2153 13.15548163226449
ONEWEB-0243             
1 48774U 21045H   26032.15046835  .00000142  00000+0  34380-3 0  9994
2 48774  87.8990 286.3821 0001218  68.8577 291.2684 13.15548823226479
ONEWEB-0222             
1 48775U 21045J   26032.13382778  .00000173  00000+0  42523-3 0  9994
2 48775  87.8996 286.3420 0001376  80.9537 279.1749 13.15549063226516
ONEWEB-0244             
1 48776U 21045K   26031.70363519  .00000045  00000+0  84292-4 0  9997
2 48776  87.9004 286.4175 0001377  74.3757 285.7525 13.15548133227027
ONEWEB-0247             
1 48777U 21045L   26031.77651637  .00000092  00000+0  21068-3 0  9999
2 48777  87.8987 286.4517 0000798  51.7890 308.3312 13.15549190226478
ONEWEB-0245             
1 48778U 21045M   26032.15205859  .00000227  00000+0  57021-3 0  9992
2 48778  87.8996 286.3443 0001444  86.6195 273.5100 13.15548528226494
ONEWEB-0229             
1 48779U 21045N   26032.14730129  .00000127  00000+0  30369-3 0  9990
2 48779  87.8995 286.3431 0001465  74.0835 286.0457 13.15548478226528
ONEWEB-0228             
1 48780U 21045P   26032.10465211  .00000010  00000+0 -67616-5 0  9994
2 48780  87.9004 286.3381 0001453  78.2821 281.8473 13.15547684226433
ONEWEB-0232             
1 48781U 21045Q   26032.15522624  .00000220  00000+0  55031-3 0  9990
2 48781  87.9007 286.3248 0001506  77.0819 283.0480 13.15548288226761
ONEWEB-0231             
1 48782U 21045R   26032.13304199  .00001212  00000+0  31855-2 0  9993
2 48782  87.9000 286.3612 0001194  72.7191 287.4070 13.15553033226451
ONEWEB-0234             
1 48783U 21045S   26031.79064674 -.00000051  00000+0 -16848-3 0  9994
2 48783  87.8995 286.4074 0002053  99.4656 260.6707 13.15547691226547
ONEWEB-0238             
1 48784U 21045T   26032.09514207  .00000049  00000+0  97074-4 0  9997
2 48784  87.8997 286.3402 0001796  91.4060 268.7276 13.15547919226484
ONEWEB-0240             
1 48785U 21045U   26032.11639384 -.00000074  00000+0 -23096-3 0  9997
2 48785  87.9003 286.3350 0001272  88.9122 271.2154 13.15550666226516
ONEWEB-0246             
1 48786U 21045V   26031.73057147 -.00000067  00000+0 -21312-3 0  9997
2 48786  87.9002 286.4214 0001474  73.4520 286.6772 13.15548428226330
ONEWEB-0210             
1 48787U 21045W   26031.93339409  .00000133  00000+0  31828-3 0  9999
2 48787  87.8997 286.3782 0001070  56.4459 303.6773 13.15549258226407
ONEWEB-0214             
1 48788U 21045X   26031.71392874 -.00000059  00000+0 -19118-3 0  9998
2 48788  87.9004 286.4165 0001427  61.4686 298.6588 13.15548448226348
ONEWEB-0221             
1 48789U 21045Y   26031.94923337 -.00000729  00000+0 -19715-2 0  9994
2 48789  87.9002 286.3809 0001394  80.2515 279.8773 13.15550975226462
ONEWEB-0213             
1 48790U 21045Z   26032.09025614  .00000088  00000+0  19891-3 0  9996
2 48790  87.8994 286.3572 0001226  73.0068 287.1197 13.15549189226543
ONEWEB-0212             
1 48791U 21045AA  26032.14333394  .00000231  00000+0  57980-3 0  9991
2 48791  87.8995 286.3408 0001579  80.3223 279.8086 13.15547045226542
ONEWEB-0227             
1 48792U 21045AB  26031.76226298  .00000150  00000+0  36424-3 0  9993
2 48792  87.8988 286.4216 0001453  80.0386 280.0909 13.15548440226448
ONEWEB-0226             
1 48793U 21045AC  26032.13620807  .00000129  00000+0  30881-3 0  9997
2 48793  87.8987 286.3572 0001283  71.1721 288.9549 13.15548383226462
ONEWEB-0224             
1 48794U 21045AD  26032.09975948  .00000002  00000+0 -28467-4 0  9991
2 48794  87.8993 286.4000 0001482 113.9931 246.1355 13.15548476226381
ONEWEB-0233             
1 48795U 21045AE  26031.95226742 -.00000112  00000+0 -33033-3 0  9994
2 48795  87.8990 286.4393 0001260  83.2924 276.8349 13.15548086226389
ONEWEB-0190             
1 48796U 21045AF  26032.09184502  .00000054  00000+0  10817-3 0  9996
2 48796  87.8990 286.3722 0000778  71.6761 288.4454 13.15549729226479
ONEWEB-0236             
1 48797U 21045AG  26032.10927224 -.00000075  00000+0 -23410-3 0  9993
2 48797  87.8990 286.3805 0001667  80.7632 279.3687 13.15548186226369
ONEWEB-0248             
1 48798U 21045AH  26031.74166142 -.00000073  00000+0 -22765-3 0  9997
2 48798  87.8999 286.4232 0001113  97.2790 262.8467 13.15547911226478
ONEWEB-0225             
1 48799U 21045AJ  26031.76385221  .00000112  00000+0  26316-3 0  9999
2 48799  87.8990 286.4381 0000922  73.2237 286.8994 13.15548457226480
ONEWEB-0215             
1 48800U 21045AK  26031.73374101 -.00000048  00000+0 -16091-3 0  9993
2 48800  87.9006 286.4117 0000849  88.1443 271.9785 13.15548523226354
ONEWEB-0216             
1 48801U 21045AL  26031.74324595 -.00000105  00000+0 -31359-3 0  9995
2 48801  87.8989 286.4342 0001503  72.9973 287.1322 13.15547837226365
ONEWEB-0239             
1 48802U 21045AM  26031.97617181 -.00000017  00000+0 -80343-4 0  9997
2 48802  87.8987 286.4020 0000810 103.7221 256.4000 13.15549099226438
ONEWEB-0249             
1 48967U 21060A   26032.01760779  .00021138  00000+0  55222-1 0  9994
2 48967  87.9011 255.8867 0002069  87.0769 273.0599 13.16483219221690
ONEWEB-0250             
1 48968U 21060B   26032.01232237  .00000052  00000+0  87612-4 0  9991
2 48968  87.9007 254.0874 0002018 116.7796 243.3547 13.25824926222170
ONEWEB-0252             
1 48970U 21060D   26032.04920323  .00000070  00000+0  15063-3 0  9997
2 48970  87.9008 255.8727 0001428  77.1471 282.9819 13.16594640221744
ONEWEB-0253             
1 48971U 21060E   26032.03812352  .00000033  00000+0  52081-4 0  9990
2 48971  87.9012 255.8804 0001332  86.1197 274.0086 13.16593635221678
ONEWEB-0254             
1 48972U 21060F   26032.04761848  .00000097  00000+0  22045-3 0  9991
2 48972  87.9013 255.8719 0001242  95.5693 264.5580 13.16593229221672
ONEWEB-0255             
1 48973U 21060G   26032.00962415  .00000118  00000+0  27628-3 0  9997
2 48973  87.9010 255.8910 0001301  91.8907 268.2373 13.16594399221744
ONEWEB-0256             
1 48974U 21060H   26031.88375278 -.00000028  00000+0 -10578-3 0  9996
2 48974  87.9001 255.9222 0001553  80.7325 279.3982 13.16594319221697
ONEWEB-0257             
1 48975U 21060J   26032.06820197  .00000145  00000+0  34540-3 0  9996
2 48975  87.9012 255.8691 0001306  83.7539 276.3741 13.16593763221675
ONEWEB-0258             
1 48976U 21060K   26032.06978872  .00000143  00000+0  34025-3 0  9997
2 48976  87.9007 255.8812 0001537  88.3059 271.8249 13.16593200221689
ONEWEB-0259             
1 48977U 21060L   26031.91145994  .00000121  00000+0  28238-3 0  9997
2 48977  87.9013 255.9101 0001355  88.6272 271.5015 13.16593415221694
ONEWEB-0260             
1 48978U 21060M   26032.05474548  .00000076  00000+0  16468-3 0  9995
2 48978  87.9000 255.8897 0001564  69.4063 290.7236 13.16594861221693
ONEWEB-0261             
1 48979U 21060N   26031.64467931  .00000014  00000+0  21203-5 0  9995
2 48979  87.9003 255.9736 0001104  81.8853 278.2403 13.16594318221699
ONEWEB-0262             
1 48980U 21060P   26032.08087151  .00000083  00000+0  18283-3 0  9996
2 48980  87.9011 255.8644 0001429  98.5670 261.5623 13.16593590221712
ONEWEB-0263             
1 48981U 21060Q   26032.03653117  .00000044  00000+0  82188-4 0  9996
2 48981  87.9012 255.8847 0001103  91.2915 268.8343 13.16594035221679
ONEWEB-0264             
1 48982U 21060R   26031.99774896  .00000254  00000+0  63090-3 0  9992
2 48982  87.9014 255.8970 0001335  77.0767 283.0513 13.16593834221677
ONEWEB-0266             
1 48984U 21060T   26032.09512029 -.00000012  00000+0 -66271-4 0  9993
2 48984  87.9016 255.8661 0001595  92.0544 268.0770 13.16593741221671
ONEWEB-0267             
1 48985U 21060U   26031.87820546  .00000034  00000+0  54344-4 0  9995
2 48985  87.9011 255.9062 0001283  83.1954 276.9323 13.16593375221656
ONEWEB-0268             
1 48986U 21060V   26032.07453426  .00000098  00000+0  22326-3 0  9992
2 48986  87.9013 255.8769 0001469  85.2466 274.8832 13.16592977221940
ONEWEB-0269             
1 48987U 21060W   26032.05552948  .00000160  00000+0  38609-3 0  9991
2 48987  87.9000 255.8981 0001638  82.3748 277.7569 13.16593887221717
ONEWEB-0270             
1 48988U 21060X   26031.99695907  .00000163  00000+0  39278-3 0  9993
2 48988  87.9011 255.8943 0001147  99.0643 261.0618 13.16594222221740
